[{"OBJECT_NAME":"STARLINK-34220","OBJECT_ID":"2025-157AC","EPOCH":"2026-03-09T22:22:21.895104","MEAN_MOTION":15.30207695,"ECCENTRICITY":0.00014301,"INCLINATION":53.1591,"RA_OF_ASC_NODE":344.3347,"ARG_OF_PERICENTER":123.5259,"MEAN_ANOMALY":236.5878,"EPHEMERIS_TYPE":0,"CLASSIFICATION_TYPE":"U","NORAD_CAT_ID":64930,"ELEMENT_SET_NO":999,"REV_AT_EPOCH":3605,"BSTAR":0.00084052172,"MEAN_MOTION_DOT":0.00024623,"MEAN_MOTION_DDOT":0},{"OBJECT_NAME":"CZ-6A DEB","OBJECT_ID":"2022-151SD","EPOCH":"2026-03-09T21:25:15.700512","MEAN_MOTION":15.24469357,"ECCENTRICITY":0.00248717,"INCLINATION":98.6538,"RA_OF_ASC_NODE":157.5128,"ARG_OF_PERICENTER":174.047,"MEAN_ANOMALY":186.1065,"EPHEMERIS_TYPE":0,"CLASSIFICATION_TYPE":"U","NORAD_CAT_ID":54940,"ELEMENT_SET_NO":999,"REV_AT_EPOCH":17680,"BSTAR":0.0087519903,"MEAN_MOTION_DOT":0.00223015,"MEAN_MOTION_DDOT":0}]
